CCSDS_OMM_VERS = 2.0
CREATION_DATE  = 
ORIGINATOR     = 

OBJECT_NAME    = STARLINK-35322
OBJECT_ID      = 2025-253P
CENTER_NAME    = EARTH
REF_FRAME      = TEME
TIME_SYSTEM    = UTC
MEAN_ELEMENT_THEORY = SGP/SGP4

EPOCH          = 2025-11-30T02:47:05.030016
MEAN_MOTION    = 15.50639310
ECCENTRICITY   = .0001097
INCLINATION    = 42.9996
RA_OF_ASC_NODE = 58.5158
ARG_OF_PERICENTER = 278.3421
MEAN_ANOMALY   = 81.7315

EPHEMERIS_TYPE = 0
CLASSIFICATION_TYPE = U
NORAD_CAT_ID   = 66332
ELEMENT_SET_NO = 999
REV_AT_EPOCH   = 497
BSTAR          = .13412E-2
MEAN_MOTION_DOT = .79313E-3
MEAN_MOTION_DDOT = 0

CCSDS_OMM_VERS = 2.0
CREATION_DATE  = 
ORIGINATOR     = 

OBJECT_NAME    = STARLINK-35400
OBJECT_ID      = 2025-253Q
CENTER_NAME    = EARTH
REF_FRAME      = TEME
TIME_SYSTEM    = UTC
MEAN_ELEMENT_THEORY = SGP/SGP4

EPOCH          = 2025-11-30T02:45:06.635232
MEAN_MOTION    = 15.50646756
ECCENTRICITY   = .000097
INCLINATION    = 42.9988
RA_OF_ASC_NODE = 58.5053
ARG_OF_PERICENTER = 251.8349
MEAN_ANOMALY   = 108.2405

EPHEMERIS_TYPE = 0
CLASSIFICATION_TYPE = U
NORAD_CAT_ID   = 66333
ELEMENT_SET_NO = 999
REV_AT_EPOCH   = 497
BSTAR          = .2325E-2
MEAN_MOTION_DOT = .138832E-2
MEAN_MOTION_DDOT = 0

CCSDS_OMM_VERS = 2.0
CREATION_DATE  = 
ORIGINATOR     = 

OBJECT_NAME    = STARLINK-35407
OBJECT_ID      = 2025-253R
CENTER_NAME    = EARTH
REF_FRAME      = TEME
TIME_SYSTEM    = UTC
MEAN_ELEMENT_THEORY = SGP/SGP4

EPOCH          = 2025-11-30T02:46:35.438880
MEAN_MOTION    = 15.50609418
ECCENTRICITY   = .0001629
INCLINATION    = 42.9997
RA_OF_ASC_NODE = 58.5155
ARG_OF_PERICENTER = 265.9823
MEAN_ANOMALY   = 94.0851

EPHEMERIS_TYPE = 0
CLASSIFICATION_TYPE = U
NORAD_CAT_ID   = 66334
ELEMENT_SET_NO = 999
REV_AT_EPOCH   = 497
BSTAR          = .24444E-2
MEAN_MOTION_DOT = .145921E-2
MEAN_MOTION_DDOT = 0

CCSDS_OMM_VERS = 2.0
CREATION_DATE  = 
ORIGINATOR     = 

OBJECT_NAME    = STARLINK-35417
OBJECT_ID      = 2025-253S
CENTER_NAME    = EARTH
REF_FRAME      = TEME
TIME_SYSTEM    = UTC
MEAN_ELEMENT_THEORY = SGP/SGP4

EPOCH          = 2025-11-30T04:00:03.998880
MEAN_MOTION    = 15.40853216
ECCENTRICITY   = .0001291
INCLINATION    = 43.0000
RA_OF_ASC_NODE = 58.2612
ARG_OF_PERICENTER = 286.1642
MEAN_ANOMALY   = 339.8536

EPHEMERIS_TYPE = 0
CLASSIFICATION_TYPE = U
NORAD_CAT_ID   = 66335
ELEMENT_SET_NO = 999
REV_AT_EPOCH   = 490
BSTAR          = -.69941E-2
MEAN_MOTION_DOT = -.28332E-2
MEAN_MOTION_DDOT = 0

CCSDS_OMM_VERS = 2.0
CREATION_DATE  = 
ORIGINATOR     = 

OBJECT_NAME    = STARLINK-35404
OBJECT_ID      = 2025-253T
CENTER_NAME    = EARTH
REF_FRAME      = TEME
TIME_SYSTEM    = UTC
MEAN_ELEMENT_THEORY = SGP/SGP4

EPOCH          = 2025-11-30T02:44:07.381248
MEAN_MOTION    = 15.50629949
ECCENTRICITY   = .0001838
INCLINATION    = 42.9996
RA_OF_ASC_NODE = 58.5007
ARG_OF_PERICENTER = 286.2544
MEAN_ANOMALY   = 73.8114

EPHEMERIS_TYPE = 0
CLASSIFICATION_TYPE = U
NORAD_CAT_ID   = 66336
ELEMENT_SET_NO = 999
REV_AT_EPOCH   = 497
BSTAR          = .23698E-2
MEAN_MOTION_DOT = .14148E-2
MEAN_MOTION_DDOT = 0

CCSDS_OMM_VERS = 2.0
CREATION_DATE  = 
ORIGINATOR     = 

OBJECT_NAME    = STARLINK-34783
OBJECT_ID      = 2025-253U
CENTER_NAME    = EARTH
REF_FRAME      = TEME
TIME_SYSTEM    = UTC
MEAN_ELEMENT_THEORY = SGP/SGP4

EPOCH          = 2025-11-30T04:00:03.998880
MEAN_MOTION    = 15.44159900
ECCENTRICITY   = .0001209
INCLINATION    = 42.9997
RA_OF_ASC_NODE = 58.2130
ARG_OF_PERICENTER = 263.6072
MEAN_ANOMALY   = 22.5200

EPHEMERIS_TYPE = 0
CLASSIFICATION_TYPE = U
NORAD_CAT_ID   = 66337
ELEMENT_SET_NO = 999
REV_AT_EPOCH   = 495
BSTAR          = -.48362E-1
MEAN_MOTION_DOT = -.202041E-1
MEAN_MOTION_DDOT = 0

CCSDS_OMM_VERS = 2.0
CREATION_DATE  = 
ORIGINATOR     = 

OBJECT_NAME    = STARLINK-35477
OBJECT_ID      = 2025-253V
CENTER_NAME    = EARTH
REF_FRAME      = TEME
TIME_SYSTEM    = UTC
MEAN_ELEMENT_THEORY = SGP/SGP4

EPOCH          = 2025-11-30T04:00:03.998880
MEAN_MOTION    = 15.40635621
ECCENTRICITY   = .0000845
INCLINATION    = 42.9995
RA_OF_ASC_NODE = 58.2911
ARG_OF_PERICENTER = 287.0707
MEAN_ANOMALY   = 326.5582

EPHEMERIS_TYPE = 0
CLASSIFICATION_TYPE = U
NORAD_CAT_ID   = 66338
ELEMENT_SET_NO = 999
REV_AT_EPOCH   = 500
BSTAR          = .28329E-2
MEAN_MOTION_DOT = .119648E-2
MEAN_MOTION_DDOT = 0

CCSDS_OMM_VERS = 2.0
CREATION_DATE  = 
ORIGINATOR     = 

OBJECT_NAME    = STARLINK-35443
OBJECT_ID      = 2025-253W
CENTER_NAME    = EARTH
REF_FRAME      = TEME
TIME_SYSTEM    = UTC
MEAN_ELEMENT_THEORY = SGP/SGP4

EPOCH          = 2025-11-30T02:40:39.933120
MEAN_MOTION    = 15.50633459
ECCENTRICITY   = .0001762
INCLINATION    = 42.9994
RA_OF_ASC_NODE = 58.4799
ARG_OF_PERICENTER = 292.1337
MEAN_ANOMALY   = 67.9336

EPHEMERIS_TYPE = 0
CLASSIFICATION_TYPE = U
NORAD_CAT_ID   = 66339
ELEMENT_SET_NO = 999
REV_AT_EPOCH   = 497
BSTAR          = .2188E-2
MEAN_MOTION_DOT = .13043E-2
MEAN_MOTION_DDOT = 0

CCSDS_OMM_VERS = 2.0
CREATION_DATE  = 
ORIGINATOR     = 

OBJECT_NAME    = STARLINK-35218
OBJECT_ID      = 2025-253X
CENTER_NAME    = EARTH
REF_FRAME      = TEME
TIME_SYSTEM    = UTC
MEAN_ELEMENT_THEORY = SGP/SGP4

EPOCH          = 2025-11-30T02:43:37.783200
MEAN_MOTION    = 15.50621418
ECCENTRICITY   = .0002054
INCLINATION    = 42.9996
RA_OF_ASC_NODE = 58.4973
ARG_OF_PERICENTER = 279.2497
MEAN_ANOMALY   = 80.8130

EPHEMERIS_TYPE = 0
CLASSIFICATION_TYPE = U
NORAD_CAT_ID   = 66340
ELEMENT_SET_NO = 999
REV_AT_EPOCH   = 497
BSTAR          = .22987E-2
MEAN_MOTION_DOT = .137107E-2
MEAN_MOTION_DDOT = 0

CCSDS_OMM_VERS = 2.0
CREATION_DATE  = 
ORIGINATOR     = 

OBJECT_NAME    = STARLINK-35522
OBJECT_ID      = 2025-253Y
CENTER_NAME    = EARTH
REF_FRAME      = TEME
TIME_SYSTEM    = UTC
MEAN_ELEMENT_THEORY = SGP/SGP4

EPOCH          = 2025-11-30T02:45:36.345600
MEAN_MOTION    = 15.50629091
ECCENTRICITY   = .0001195
INCLINATION    = 42.9995
RA_OF_ASC_NODE = 58.5103
ARG_OF_PERICENTER = 270.4321
MEAN_ANOMALY   = 89.6402

EPHEMERIS_TYPE = 0
CLASSIFICATION_TYPE = U
NORAD_CAT_ID   = 66341
ELEMENT_SET_NO = 999
REV_AT_EPOCH   = 497
BSTAR          = .24296E-2
MEAN_MOTION_DOT = .145125E-2
MEAN_MOTION_DDOT = 0

CCSDS_OMM_VERS = 2.0
CREATION_DATE  = 
ORIGINATOR     = 

OBJECT_NAME    = STARLINK-35535
OBJECT_ID      = 2025-253Z
CENTER_NAME    = EARTH
REF_FRAME      = TEME
TIME_SYSTEM    = UTC
MEAN_ELEMENT_THEORY = SGP/SGP4

EPOCH          = 2025-11-30T02:41:09.641760
MEAN_MOTION    = 15.50627260
ECCENTRICITY   = .0001946
INCLINATION    = 42.9994
RA_OF_ASC_NODE = 58.4827
ARG_OF_PERICENTER = 287.3564
MEAN_ANOMALY   = 72.7083

EPHEMERIS_TYPE = 0
CLASSIFICATION_TYPE = U
NORAD_CAT_ID   = 66342
ELEMENT_SET_NO = 999
REV_AT_EPOCH   = 497
BSTAR          = .23177E-2
MEAN_MOTION_DOT = .138292E-2
MEAN_MOTION_DDOT = 0

CCSDS_OMM_VERS = 2.0
CREATION_DATE  = 
ORIGINATOR     = 

OBJECT_NAME    = STARLINK-35467
OBJECT_ID      = 2025-253AA
CENTER_NAME    = EARTH
REF_FRAME      = TEME
TIME_SYSTEM    = UTC
MEAN_ELEMENT_THEORY = SGP/SGP4

EPOCH          = 2025-11-30T04:00:03.998880
MEAN_MOTION    = 15.47064313
ECCENTRICITY   = .0001378
INCLINATION    = 42.9999
RA_OF_ASC_NODE = 58.1784
ARG_OF_PERICENTER = 265.4983
MEAN_ANOMALY   = 34.0436

EPHEMERIS_TYPE = 0
CLASSIFICATION_TYPE = U
NORAD_CAT_ID   = 66343
ELEMENT_SET_NO = 999
REV_AT_EPOCH   = 490
BSTAR          = -.43673E-1
MEAN_MOTION_DOT = -.2018214E-1
MEAN_MOTION_DDOT = 0

