STARLINK-35322          
1 66332U 25253P   25334.11603044  .00079313  00000+0  13412-2 0  9998
2 66332  42.9996  58.5158 0001097 278.3421  81.7315 15.50639310  4975
STARLINK-35400          
1 66333U 25253Q   25334.11466013  .00138832  00000+0  23250-2 0  9995
2 66333  42.9988  58.5053 0000970 251.8349 108.2405 15.50646756  4972
STARLINK-35407          
1 66334U 25253R   25334.11568795  .00145921  00000+0  24444-2 0  9999
2 66334  42.9997  58.5155 0001629 265.9823  94.0851 15.50609418  4972
STARLINK-35417          
1 66335U 25253S   25334.16671295 -.00283320  00000+0 -69941-2 0  9994
2 66335  43.0000  58.2612 0001291 286.1642 339.8536 15.40853216  4903
STARLINK-35404          
1 66336U 25253T   25334.11397432  .00141480  00000+0  23698-2 0  9995
2 66336  42.9996  58.5007 0001838 286.2544  73.8114 15.50629949  4975
STARLINK-34783          
1 66337U 25253U   25334.16671295 -.02020410  00000+0 -48362-1 0  9990
2 66337  42.9997  58.2130 0001209 263.6072  22.5200 15.44159900  4951
STARLINK-35477          
1 66338U 25253V   25334.16671295  .00119648  00000+0  28329-2 0  9991
2 66338  42.9995  58.2911 0000845 287.0707 326.5582 15.40635621  5009
STARLINK-35443          
1 66339U 25253W   25334.11157330  .00130430  00000+0  21880-2 0  9993
2 66339  42.9994  58.4799 0001762 292.1337  67.9336 15.50633459  4976
STARLINK-35218          
1 66340U 25253X   25334.11363175  .00137107  00000+0  22987-2 0  9998
2 66340  42.9996  58.4973 0002054 279.2497  80.8130 15.50621418  4970
STARLINK-35522          
1 66341U 25253Y   25334.11500400  .00145125  00000+0  24296-2 0  9997
2 66341  42.9995  58.5103 0001195 270.4321  89.6402 15.50629091  4974
STARLINK-35535          
1 66342U 25253Z   25334.11191715  .00138292  00000+0  23177-2 0  9997
2 66342  42.9994  58.4827 0001946 287.3564  72.7083 15.50627260  4970
STARLINK-35467          
1 66343U 25253AA  25334.16671295 -.02018214  00000+0 -43673-1 0  9996
2 66343  42.9999  58.1784 0001378 265.4983  34.0436 15.47064313  4902
